NORAD_CAT_ID,OBJECT_NAME,OBJECT_TYPE,EPOCH,MEAN_MOTION,ECCENTRICITY,INCLINATION,RA_OF_ASC_NODE,ARG_OF_PERICENTER,MEAN_ANOMALY,BSTAR,MEAN_MOTION_DOT,MEAN_MOTION_DDOT,TLE_LINE0,TLE_LINE1,TLE_LINE2,SEMIMAJOR_AXIS,PERIOD,APOGEE,PERIGEE,DECAYED
51123.0,STARLINK-3392,PAYLOAD,2022-10-16 12:06:35,15.08835818,0.0002141,53.2181,96.544,42.6095,317.5063,5.3233e-06,-2.04e-06,0.0,0 STARLINK-3392,1 51123U 22005V   22289.50458254 -.00000204  00000-0  53233-5 0  9995,2 51123  53.2181  96.5440 0002141  42.6095 317.5063 15.08835818 42734,6917.893,95.438,541.239,538.2769999999998,0.0
51123.0,STARLINK-3392,PAYLOAD,2022-10-16 18:28:07,15.08843523,0.0001867,53.2183,95.3531,46.2719,313.8427,3.2503000000000004e-05,2.29e-06,0.0,0 STARLINK-3392,1 51123U 22005V   22289.76953663  .00000229  00000-0  32503-4 0  9999,2 51123  53.2183  95.3531 0001867  46.2719 313.8427 15.08843523 42770,6917.87,95.437,541.026,538.443,0.0
51123.0,STARLINK-3392,PAYLOAD,2022-10-17 10:22:00,15.08830442,0.0001886999999999,53.2194,92.3818,57.8632,302.2543,4.0988e-05,3.64e-06,0.0,0 STARLINK-3392,1 51123U 22005V   22290.43194780  .00000364  00000-0  40988-4 0  9998,2 51123  53.2194  92.3818 0001887  57.8632 302.2543 15.08830442 41799,6917.91,95.438,541.08,538.469,0.0
51123.0,STARLINK-3392,PAYLOAD,2022-10-17 18:18:55,15.08833658,0.000199,53.2186,90.8936,43.824,316.291,8.977200000000001e-05,1.141e-05,0.0,0 STARLINK-3392,1 51123U 22005V   22290.76314621  .00001141  00000-0  89772-4 0  9990,2 51123  53.2186  90.8936 0001990  43.8240 316.2910 15.08833658 41840,6917.9,95.438,541.141,538.388,0.0
51123.0,STARLINK-3392,PAYLOAD,2022-10-18 03:51:14,15.08840272,0.0002013,53.2187,89.1093,44.3706,315.7447,0.00010799,1.431e-05,0.0,0 STARLINK-3392,1 51123U 22005V   22291.16058230  .00001431  00000-0  10799-3 0  9990,2 51123  53.2187  89.1093 0002013  44.3706 315.7447 15.08840272 41902,6917.88,95.438,541.137,538.352,0.0
51123.0,STARLINK-3392,PAYLOAD,2022-10-18 19:45:06,15.08838425,0.0001993,53.2189,86.1356,51.2718,308.8452,1.7028e-05,-1.7e-07,0.0,0 STARLINK-3392,1 51123U 22005V   22291.82298727 -.00000017  00000-0  17028-4 0  9993,2 51123  53.2189  86.1356 0001993  51.2718 308.8452 15.08838425 42007,6917.885,95.438,541.129,538.371,0.0
51123.0,STARLINK-3392,PAYLOAD,2022-10-19 10:03:33,15.08844047,0.0001976,53.2194,83.4588,45.9429,314.1725,6.0472e-05,6.74e-06,0.0,0 STARLINK-3392,1 51123U 22005V   22292.41914313  .00000674  00000-0  60472-4 0  9994,2 51123  53.2194  83.4588 0001976  45.9429 314.1725 15.08844047 43179,6917.868,95.437,541.1,538.366,0.0
51123.0,STARLINK-3392,PAYLOAD,2022-10-19 16:25:05,15.08849703,0.0002005,53.2192,82.2699,46.2245,313.8913,0.00011257,1.504e-05,0.0,0 STARLINK-3392,1 51123U 22005V   22292.68409677  .00001504  00000-0  11257-3 0  9994,2 51123  53.2192  82.2699 0002005  46.2245 313.8913 15.08849703 42135,6917.851,95.437,541.1030000000002,538.3290000000002,0.0
51123.0,STARLINK-3392,PAYLOAD,2022-10-20 09:54:21,15.08838365,0.0001988,53.2171,78.9984,47.1192,312.9967,4.0186e-05,3.51e-06,0.0,0 STARLINK-3392,1 51123U 22005V   22293.41274380  .00000351  00000-0  40186-4 0  9990,2 51123  53.2171  78.9984 0001988  47.1192 312.9967 15.08838365 43324,6917.885,95.438,541.126,538.375,0.0
51123.0,STARLINK-3392,PAYLOAD,2022-10-20 17:51:16,15.08845441,0.000199,53.2169,77.5126,43.7921,316.3229,8.1341e-05,1.007e-05,0.0,0 STARLINK-3392,1 51123U 22005V   22293.74393739  .00001007  00000-0  81341-4 0  9993,2 51123  53.2169  77.5126 0001990  43.7921 316.3229 15.08845441 43376,6917.864000000001,95.437,541.105,538.352,0.0
51123.0,STARLINK-3392,PAYLOAD,2022-10-21 09:45:08,15.08841442,0.0002130999999999,53.2173,74.5384,46.7219,313.3951,-5.9314e-05,-1.232e-05,0.0,0 STARLINK-3392,1 51123U 22005V   22294.40634383 -.00001232  00000-0 -59314-4 0  9997,2 51123  53.2173  74.5384 0002131  46.7219 313.3951 15.08841442 43472,6917.876,95.437,541.215,538.2669999999998,0.0
51123.0,STARLINK-3392,PAYLOAD,2022-10-22 09:35:54,15.08862411,0.0002191999999999,53.2175,70.0793,42.3876,317.7285,-0.00013321,-2.409e-05,0.0,0 STARLINK-3392,1 51123U 22005V   22295.39993198 -.00002409  00000-0 -13321-3 0  9992,2 51123  53.2175  70.0793 0002192  42.3876 317.7285 15.08862411 43621,6917.812,95.436,541.193,538.161,0.0
51123.0,STARLINK-3392,PAYLOAD,2022-10-22 12:46:40,15.08849466,0.000187,53.2184,69.4815,52.6493,307.4669,3.4726e-05,2.65e-06,0.0,0 STARLINK-3392,1 51123U 22005V   22295.53241146  .00000265  00000-0  34726-4 0  9996,2 51123  53.2184  69.4815 0001870  52.6493 307.4669 15.08849466 42568,6917.851,95.437,541.01,538.423,0.0
51123.0,STARLINK-3392,PAYLOAD,2022-10-22 19:08:13,15.08835482,0.0002156,53.219,68.2945,38.0418,322.0726,-7.9049e-05,-1.546e-05,0.0,0 STARLINK-3392,1 51123U 22005V   22295.79738388 -.00001546  00000-0 -79049-4 0  9995,2 51123  53.2190  68.2945 0002156  38.0418 322.0726 15.08835482 42604,6917.894,95.438,541.251,538.268,0.0
51123.0,STARLINK-3392,PAYLOAD,2022-10-23 01:29:45,15.08848309,0.0002026,53.2181,67.1064,39.3822,320.7317,-0.00014769,-2.639e-05,0.0,0 STARLINK-3392,1 51123U 22005V   22296.06233646 -.00002639  00000-0 -14769-3 0  9994,2 51123  53.2181  67.1064 0002026  39.3822 320.7317 15.08848309 43720,6917.855,95.437,541.122,538.318,0.0
51123.0,STARLINK-3392,PAYLOAD,2022-10-23 09:26:41,15.08845916,0.0002044,53.2185,65.6184,39.0801,321.0339,2.9598e-05,1.83e-06,0.0,0 STARLINK-3392,1 51123U 22005V   22296.39353373  .00000183  00000-0  29598-4 0  9997,2 51123  53.2185  65.6184 0002044  39.0801 321.0339 15.08845916 42698,6917.861999999999,95.437,541.141,538.313,0.0
51123.0,STARLINK-3392,PAYLOAD,2022-10-23 18:58:59,15.08851622,0.0002094,53.2187,63.8351,47.5264,312.5905,8.3971e-05,1.049e-05,0.0,0 STARLINK-3392,1 51123U 22005V   22296.79096663  .00001049  00000-0  83971-4 0  9994,2 51123  53.2187  63.8351 0002094  47.5264 312.5905 15.08851622 43830,6917.845,95.437,541.158,538.261,0.0
51123.0,STARLINK-3392,PAYLOAD,2022-10-24 09:17:28,15.08838441,0.0001786,53.2192,61.1578,38.9606,321.1515,-1.4981e-05,-5.27e-06,0.0,0 STARLINK-3392,1 51123U 22005V   22297.38713602 -.00000527  00000-0 -14981-4 0  9996,2 51123  53.2192  61.1578 0001786  38.9606 321.1515 15.08838441 43926,6917.885,95.438,540.986,538.515,0.0
51123.0,STARLINK-3392,PAYLOAD,2022-10-24 17:14:25,15.08822849,0.0002114,53.2198,59.6712,39.0752,321.0393,-0.00013926,-2.503e-05,0.0,0 STARLINK-3392,1 51123U 22005V   22297.71835307 -.00002503  00000-0 -13926-3 0  9993,2 51123  53.2198  59.6712 0002114  39.0752 321.0393 15.08822849 43977,6917.933000000001,95.439,541.26,538.335,0.0
51123.0,STARLINK-3392,PAYLOAD,2022-10-25 09:08:16,15.08828639,0.0002029999999999,53.2189,56.6984,36.908,323.2052,-7.0775e-05,-1.414e-05,0.0,0 STARLINK-3392,1 51123U 22005V   22298.38075213 -.00001414  00000-0 -70775-4 0  9995,2 51123  53.2189  56.6984 0002030  36.9080 323.2052 15.08828639 44073,6917.915,95.438,541.184,538.376,0.0
51123.0,STARLINK-3392,PAYLOAD,2022-10-26 08:59:03,15.08829793,0.0001979,53.2192,52.238,35.2816,324.8307,0.00023774,3.497e-05,0.0,0 STARLINK-3392,1 51123U 22005V   22299.37434663  .00003497  00000-0  23774-3 0  9990,2 51123  53.2192  52.2380 0001979  35.2816 324.8307 15.08829793 44228,6917.9119999999975,95.438,541.146,538.408,0.0
51123.0,STARLINK-3392,PAYLOAD,2022-10-26 13:45:12,15.08832665,0.0002006999999999,53.2193,51.346,35.8021,324.3105,0.0002532,3.743e-05,0.0,0 STARLINK-3392,1 51123U 22005V   22299.57306669  .00003743  00000-0  25320-3 0  9999,2 51123  53.2193  51.3460 0002007  35.8021 324.3105 15.08832665 43171,6917.903,95.438,541.156,538.379,0.0
51123.0,STARLINK-3392,PAYLOAD,2022-10-27 13:35:59,15.08850609,0.0002387,53.2163,46.8856,40.8942,319.2229,0.00013583,1.875e-05,0.0,0 STARLINK-3392,1 51123U 22005V   22300.56666498  .00001875  00000-0  13583-3 0  9992,2 51123  53.2163  46.8856 0002387  40.8942 319.2229 15.08850609 43320,6917.848000000001,95.437,541.364,538.062,0.0
51123.0,STARLINK-3392,PAYLOAD,2022-10-28 11:51:23,15.0885396,0.0002034,53.2174,42.7217,31.7453,328.3662,6.8946e-05,8.1e-06,0.0,0 STARLINK-3392,1 51123U 22005V   22301.49401707  .00000810  00000-0  68946-4 0  9997,2 51123  53.2174  42.7217 0002034  31.7453 328.3662 15.08853960 43463,6917.8380000000025,95.437,541.11,538.2959999999998,0.0
51123.0,STARLINK-3392,PAYLOAD,2022-10-28 16:37:32,15.08855032,0.000197,53.2176,41.8292,35.0299,325.0822,7.3592e-05,8.84e-06,0.0,0 STARLINK-3392,1 51123U 22005V   22301.69273458  .00000884  00000-0  73592-4 0  9993,2 51123  53.2176  41.8292 0001970  35.0299 325.0822 15.08855032 43498,6917.834,95.437,541.062,538.337,0.0
51123.0,STARLINK-3392,PAYLOAD,2022-10-29 16:28:19,15.08847732,0.0002254,53.2164,37.3677,44.8029,315.3145,-2.1713e-05,-6.34e-06,0.0,0 STARLINK-3392,1 51123U 22005V   22302.68633603 -.00000634  00000-0 -21713-4 0  9998,2 51123  53.2164  37.3677 0002254  44.8029 315.3145 15.08847732 44722,6917.857,95.437,541.281,538.1619999999998,0.0
51123.0,STARLINK-3392,PAYLOAD,2022-10-30 11:32:55,15.08858693,0.0001921,53.218,33.7985,42.9832,317.131,0.00019145,2.762e-05,0.0,0 STARLINK-3392,1 51123U 22005V   22303.48120346  .00002762  00000-0  19145-3 0  9999,2 51123  53.2180  33.7985 0001921  42.9832 317.1310 15.08858693 43768,6917.823,95.436,541.0169999999998,538.359,0.0
51123.0,STARLINK-3392,PAYLOAD,2022-10-30 16:19:06,15.0883241,0.0002478,53.2178,32.9077,35.3176,324.798,-0.00015181,-2.703e-05,0.0,0 STARLINK-3392,1 51123U 22005V   22303.67993554 -.00002703  00000-0 -15181-3 0  9992,2 51123  53.2178  32.9077 0002478  35.3176 324.7980 15.08832410 43792,6917.904,95.438,541.4830000000002,538.054,0.0
51123.0,STARLINK-3392,PAYLOAD,2022-10-31 09:48:20,15.08839089,0.0002213,53.2174,29.6381,35.908,324.206,-6.1365e-05,-1.265e-05,0.0,0 STARLINK-3392,1 51123U 22005V   22304.40857412 -.00001265  00000-0 -61365-4 0  9994,2 51123  53.2174  29.6381 0002213  35.9080 324.2060 15.08839089 43902,6917.8830000000025,95.438,541.279,538.217,0.0
